CYGFM05                 
1 41884U 16078A   26159.13588580  .00021149  00000+0  29099-3 0  9996
2 41884  34.9577 320.5088 0006939  57.2733 302.8659 15.56264978527349
CYGFM04                 
1 41885U 16078B   26159.07040567  .00030386  00000+0  34874-3 0  9998
2 41885  34.9327 289.0859 0005960 104.2371 255.9016 15.61001382527576
CYGFM02                 
1 41886U 16078C   26158.76915222  .00034711  00000+0  35547-3 0  9997
2 41886  34.9410 285.9023 0006939 102.1457 258.0047 15.63886780527693
CYGFM01                 
1 41887U 16078D   26158.87202991  .00025246  00000+0  33868-3 0  9999
2 41887  34.9407 323.3879 0006911  47.7074 312.4235 15.56917446527257
CYGFM08                 
1 41888U 16078E   26158.71929493  .00029673  00000+0  36036-3 0  9994
2 41888  34.9437 304.2251 0007839  81.2519 278.9093 15.59518568527499
CYGFM07                 
1 41890U 16078G   26158.67904067  .00029729  00000+0  35980-3 0  9991
2 41890  34.9451 292.8440 0006346  98.7772 261.3672 15.59620789527517
CYGFM03                 
1 41891U 16078H   26158.77801366  .00027308  00000+0  33072-3 0  9992
2 41891  34.9404 294.1248 0005908  86.1053 274.0347 15.59618754527501
FENGYUN 3D              
1 43010U 17072A   26159.19705637  .00000183  00000+0  10812-3 0  9992
2 43010  99.0127 133.4574 0002632  76.0491 284.0977 14.19737916443719
NOAA 20 (JPSS-1)        
1 43013U 17073A   26159.12004583  .00000061  00000+0  49736-4 0  9994
2 43013  98.7770  98.6634 0000476  40.4301 319.6910 14.19510112443180
GOES 17                 
1 43226U 18022A   26159.04078934 -.00000167  00000+0  00000+0 0  9991
2 43226   0.9130  85.8739 0000634   8.7123  87.0479  1.00271990 30339
SENTINEL-3B             
1 43437U 18039A   26159.14294896  .00000107  00000+0  62385-4 0  9993
2 43437  98.6250 226.8048 0000869  77.3993 282.7284 14.26739258422833
FENGYUN 2H              
1 43491U 18050A   26159.07428795 -.00000115  00000+0  00000+0 0  9996
2 43491   3.0070  79.1794 0001516 126.1581 157.3291  1.00271427 29347
